{
  "type": "FeatureCollection",
  "features": [
    {
      "type": "Feature",
      "properties": {
        "norad_id": 33986,
        "name": "COSMOS 2251 DEB",
        "group": "cosmos-2251-debris",
        "lat": -65.69248573360701,
        "lon": 156.04015751937214,
        "alt_km": 767.91846323344,
        "timestamp": "2025-12-15T22:44:29.323520+00:00",
        "meta_object_name": "COSMOS 2251 DEB",
        "meta_object_id": "1993-036FV",
        "meta_epoch": "2025-12-15T07:09:37.451232",
        "meta_mean_motion": 14.43219604,
        "meta_eccentricity": 0.00406115,
        "meta_inclination": 74.0367,
        "meta_ra_of_asc_node": 297.9199,
        "meta_arg_of_pericenter": 10.0274,
        "meta_mean_anomaly": 110.1044,
        "meta_ephemeris_type": 0,
        "meta_classification_type": "U",
        "meta_norad_cat_id": 33986,
        "meta_element_set_no": 999,
        "meta_rev_at_epoch": 88065,
        "meta_bstar": 0.00061244654,
        "meta_mean_motion_dot": 2.054e-05,
        "meta_mean_motion_ddot": 0,
        "tle_line1": "1 33986U 93036FV  25349.29835013  .00002054  00000+0  61245-3 0  9995",
        "tle_line2": "2 33986  74.0367 297.9199 0040611  10.0274 110.1044 14.43219604880652"
      },
      "geometry": {
        "type": "Point",
        "coordinates": [
          156.04015751937214,
          -65.69248573360701
        ]
      }
    },
    {
      "type": "Feature",
      "properties": {
        "norad_id": 33990,
        "name": "COSMOS 2251 DEB",
        "group": "cosmos-2251-debris",
        "lat": -49.32597307216195,
        "lon": -98.75462392158866,
        "alt_km": 777.4254424241635,
        "timestamp": "2025-12-15T22:44:29.323530+00:00",
        "meta_object_name": "COSMOS 2251 DEB",
        "meta_object_id": "1993-036FZ",
        "meta_epoch": "2025-12-15T06:03:46.759392",
        "meta_mean_motion": 13.49998548,
        "meta_eccentricity": 0.04074944,
        "meta_inclination": 73.9289,
        "meta_ra_of_asc_node": 281.9599,
        "meta_arg_of_pericenter": 301.8169,
        "meta_mean_anomaly": 229.4065,
        "meta_ephemeris_type": 0,
        "meta_classification_type": "U",
        "meta_norad_cat_id": 33990,
        "meta_element_set_no": 999,
        "meta_rev_at_epoch": 82763,
        "meta_bstar": 0.0010140551,
        "meta_mean_motion_dot": 1.056e-05,
        "meta_mean_motion_ddot": 0,
        "tle_line1": "1 33990U 93036FZ  25349.25262453  .00001056  00000+0  10141-2 0  9997",
        "tle_line2": "2 33990  73.9289 281.9599 0407494 301.8169 229.4065 13.49998548827637"
      },
      "geometry": {
        "type": "Point",
        "coordinates": [
          -98.75462392158866,
          -49.32597307216195
        ]
      }
    },
    {
      "type": "Feature",
      "properties": {
        "norad_id": 33992,
        "name": "COSMOS 2251 DEB",
        "group": "cosmos-2251-debris",
        "lat": 11.502717370555713,
        "lon": -25.108088851578497,
        "alt_km": 665.3744688201523,
        "timestamp": "2025-12-15T22:44:29.323541+00:00",
        "meta_object_name": "COSMOS 2251 DEB",
        "meta_object_id": "1993-036GB",
        "meta_epoch": "2025-12-15T08:28:25.641984",
        "meta_mean_motion": 14.66237648,
        "meta_eccentricity": 0.00516284,
        "meta_inclination": 74.0239,
        "meta_ra_of_asc_node": 332.6958,
        "meta_arg_of_pericenter": 89.7626,
        "meta_mean_anomaly": 26.215,
        "meta_ephemeris_type": 0,
        "meta_classification_type": "U",
        "meta_norad_cat_id": 33992,
        "meta_element_set_no": 999,
        "meta_rev_at_epoch": 89163,
        "meta_bstar": 0.00055568552,
        "meta_mean_motion_dot": 3.092e-05,
        "meta_mean_motion_ddot": 0,
        "tle_line1": "1 33992U 93036GB  25349.35307456  .00003092  00000+0  55569-3 0  9999",
        "tle_line2": "2 33992  74.0239 332.6958 0051628  89.7626  26.2150 14.66237648891639"
      },
      "geometry": {
        "type": "Point",
        "coordinates": [
          -25.108088851578497,
          11.502717370555713
        ]
      }
    },
    {
      "type": "Feature",
      "properties": {
        "norad_id": 33994,
        "name": "COSMOS 2251 DEB",
        "group": "cosmos-2251-debris",
        "lat": -3.1356297575290206,
        "lon": -176.42433085929392,
        "alt_km": 744.2601096979924,
        "timestamp": "2025-12-15T22:44:29.323551+00:00",
        "meta_object_name": "COSMOS 2251 DEB",
        "meta_object_id": "1993-036GD",
        "meta_epoch": "2025-12-15T06:54:03.829248",
        "meta_mean_motion": 14.41216182,
        "meta_eccentricity": 0.00237352,
        "meta_inclination": 74.0415,
        "meta_ra_of_asc_node": 185.6949,
        "meta_arg_of_pericenter": 319.5888,
        "meta_mean_anomaly": 214.0606,
        "meta_ephemeris_type": 0,
        "meta_classification_type": "U",
        "meta_norad_cat_id": 33994,
        "meta_element_set_no": 999,
        "meta_rev_at_epoch": 88456,
        "meta_bstar": 9.6575265e-05,
        "meta_mean_motion_dot": 2.86e-06,
        "meta_mean_motion_ddot": 0,
        "tle_line1": "1 33994U 93036GD  25349.28754432  .00000286  00000+0  96575-4 0  9998",
        "tle_line2": "2 33994  74.0415 185.6949 0023735 319.5888 214.0606 14.41216182884565"
      },
      "geometry": {
        "type": "Point",
        "coordinates": [
          -176.42433085929392,
          -3.1356297575290206
        ]
      }
    },
    {
      "type": "Feature",
      "properties": {
        "norad_id": 33995,
        "name": "COSMOS 2251 DEB",
        "group": "cosmos-2251-debris",
        "lat": -2.090377452706728,
        "lon": 112.8854185259493,
        "alt_km": 805.526585878878,
        "timestamp": "2025-12-15T22:44:29.323561+00:00",
        "meta_object_name": "COSMOS 2251 DEB",
        "meta_object_id": "1993-036GE",
        "meta_epoch": "2025-12-15T07:41:27.865824",
        "meta_mean_motion": 14.3478771,
        "meta_eccentricity": 0.00599359,
        "meta_inclination": 74.061,
        "meta_ra_of_asc_node": 114.6299,
        "meta_arg_of_pericenter": 128.3323,
        "meta_mean_anomaly": 232.3239,
        "meta_ephemeris_type": 0,
        "meta_classification_type": "U",
        "meta_norad_cat_id": 33995,
        "meta_element_set_no": 999,
        "meta_rev_at_epoch": 87556,
        "meta_bstar": 0.00071819018,
        "meta_mean_motion_dot": 2.054e-05,
        "meta_mean_motion_ddot": 0,
        "tle_line1": "1 33995U 93036GE  25349.32046141  .00002054  00000+0  71819-3 0  9993",
        "tle_line2": "2 33995  74.0610 114.6299 0059935 128.3323 232.3239 14.34787710875561"
      },
      "geometry": {
        "type": "Point",
        "coordinates": [
          112.8854185259493,
          -2.090377452706728
        ]
      }
    },
    {
      "type": "Feature",
      "properties": {
        "norad_id": 33999,
        "name": "COSMOS 2251 DEB",
        "group": "cosmos-2251-debris",
        "lat": -3.0683783016944224,
        "lon": -136.5065166575839,
        "alt_km": 638.0176166121564,
        "timestamp": "2025-12-15T22:44:29.323571+00:00",
        "meta_object_name": "COSMOS 2251 DEB",
        "meta_object_id": "1993-036GJ",
        "meta_epoch": "2025-12-15T01:42:53.045856",
        "meta_mean_motion": 14.83421897,
        "meta_eccentricity": 0.00444604,
        "meta_inclination": 73.919,
        "meta_ra_of_asc_node": 226.1262,
        "meta_arg_of_pericenter": 121.0294,
        "meta_mean_anomaly": 239.5261,
        "meta_ephemeris_type": 0,
        "meta_classification_type": "U",
        "meta_norad_cat_id": 33999,
        "meta_element_set_no": 999,
        "meta_rev_at_epoch": 89285,
        "meta_bstar": 0.0008288262,
        "meta_mean_motion_dot": 6.895e-05,
        "meta_mean_motion_ddot": 0,
        "tle_line1": "1 33999U 93036GJ  25349.07144729  .00006895  00000+0  82883-3 0  9990",
        "tle_line2": "2 33999  73.9190 226.1262 0044460 121.0294 239.5261 14.83421897892859"
      },
      "geometry": {
        "type": "Point",
        "coordinates": [
          -136.5065166575839,
          -3.0683783016944224
        ]
      }
    },
    {
      "type": "Feature",
      "properties": {
        "norad_id": 34001,
        "name": "COSMOS 2251 DEB",
        "group": "cosmos-2251-debris",
        "lat": -0.14061638287524575,
        "lon": 95.7296531203321,
        "alt_km": 785.0359439850627,
        "timestamp": "2025-12-15T22:44:29.323581+00:00",
        "meta_object_name": "COSMOS 2251 DEB",
        "meta_object_id": "1993-036GL",
        "meta_epoch": "2025-12-15T05:56:58.457184",
        "meta_mean_motion": 14.37101753,
        "meta_eccentricity": 0.0020084,
        "meta_inclination": 74.0389,
        "meta_ra_of_asc_node": 276.9754,
        "meta_arg_of_pericenter": 357.3695,
        "meta_mean_anomaly": 164.3825,
        "meta_ephemeris_type": 0,
        "meta_classification_type": "U",
        "meta_norad_cat_id": 34001,
        "meta_element_set_no": 999,
        "meta_rev_at_epoch": 88182,
        "meta_bstar": 0.00021574305,
        "meta_mean_motion_dot": 6.16e-06,
        "meta_mean_motion_ddot": 0,
        "tle_line1": "1 34001U 93036GL  25349.24789881  .00000616  00000+0  21574-3 0  9993",
        "tle_line2": "2 34001  74.0389 276.9754 0020084 357.3695 164.3825 14.37101753881821"
      },
      "geometry": {
        "type": "Point",
        "coordinates": [
          95.7296531203321,
          -0.14061638287524575
        ]
      }
    }
  ]
}